OBJECT_NAME,OBJECT_ID,EPOCH,MEAN_MOTION,ECCENTRICITY,INCLINATION,RA_OF_ASC_NODE,ARG_OF_PERICENTER,MEAN_ANOMALY,EPHEMERIS_TYPE,CLASSIFICATION_TYPE,NORAD_CAT_ID,ELEMENT_SET_NO,REV_AT_EPOCH,BSTAR,MEAN_MOTION_DOT,MEAN_MOTION_DDOT
LEMUR-2-FINNIAN,2025-276DX,2026-06-18T22:44:35.918016,15.00396563,.0008894,97.5289,240.8832,84.2410,275.9828,0,U,66782,999,2026,.44006E-3,.5477E-4,0
LEMUR-2-STARLIGHT,2025-276DY,2026-06-19T02:32:20.635296,14.99056846,.00150911,97.5254,240.6796,122.7448,237.5232,0,U,66783,999,3048,.34971744E-3,.4197E-4,0
LEMUR-2-TARTIFLETTE,2025-276DZ,2026-06-19T04:06:13.125600,14.99084641,.00140257,97.5257,240.7490,129.0688,231.1786,0,U,66784,999,3049,.32378541E-3,.3883E-4,0
LEMUR-2-VUKASIN,2025-276EA,2026-06-19T02:18:34.695360,15.00384205,.00060113,97.5299,240.9780,120.1121,240.0699,0,U,66785,999,3043,.35696477E-3,.4428E-4,0
LEMUR-2-HOTSPUR-TOM,2025-276EB,2026-06-19T05:31:50.892096,14.98980463,.00153927,97.5257,240.7876,121.6599,238.6128,0,U,66786,999,3043,.39535372E-3,.4743E-4,0
LEMUR-2-MYRA,2025-276EC,2026-06-19T04:40:10.306272,15.00271321,.00168126,97.5214,241.0097,134.9733,225.2857,0,U,66787,999,3051,.53916377E-3,.6717E-4,0
LEMUR-2 FIKRETDENGIZ,2026-004A,2026-06-19T06:51:24.823008,14.88338255,.00102427,97.8019,168.8113,127.0375,233.1780,0,U,67363,999,2359,.37305613E-3,.3401E-4,0
TWILIGHT-1 OBJECT B,2026-004B,2026-06-19T05:51:02.760480,14.87708459,.00100722,97.8061,168.7844,118.5197,241.7034,0,U,67364,999,2359,.16234492E-3,.1426E-4,0
LEMUR-2-MARIO-SOUSA,2026-004C,2026-06-19T06:27:26.449632,14.88527155,.00098518,97.7989,168.7911,127.7711,232.4400,0,U,67365,999,2360,.42223362E-3,.3875E-4,0
LEMUR-2-SONNENBLUME,2026-004E,2026-06-19T06:25:31.694880,14.88324307,.00093212,97.7984,168.7736,129.3061,230.8983,0,U,67367,999,2360,.26786978E-3,.2425E-4,0
LEMUR-2-WOBLER,2026-004F,2026-06-18T23:48:32.664672,14.88525973,.00097259,97.8038,168.6263,120.7773,239.4402,0,U,67368,999,2356,.30915882E-3,.2822E-4,0
LEMUR-2-GRAM-E-SUE,2026-004H,2026-06-18T23:35:09.492000,14.88476924,.00083174,97.7971,168.5083,130.7429,229.4511,0,U,67370,999,2356,.17338348E-3,.1556E-4,0
LEMUR-2-KATIE,2026-004AA,2026-06-18T21:37:23.659392,14.90057114,.0004846,97.8035,168.8928,89.5222,270.6551,0,U,67387,999,2356,.25173E-3,.2376E-4,0
LEMUR-2-HCS-BAZUS,2026-004AB,2026-06-18T21:36:00.001728,14.90084657,.0004395,97.8024,168.8725,87.1175,273.0546,0,U,67388,999,2356,.39733E-3,.3785E-4,0
