
LEMUR-2 FIKRETDENGIZ
1 67363U 26004A   26170.28570397  .00003401  00000+0  37306-3 0  9993
2 67363  97.8019 168.8113 0010242 127.0375 233.1780 14.88338255 23593

LEMUR-2-FINNIAN
1 66782U 25276DX  26169.94763794  .00005477  00000+0  44006-3 0  9993
2 66782  97.5289 240.8832 0008894  84.2410 275.9828 15.00396563 20265

LEMUR-2-GRAM-E-SUE
1 67370U 26004H   26169.98274875  .00001556  00000+0  17338-3 0  9990
2 67370  97.7971 168.5083 0008317 130.7429 229.4511 14.88476924 23564

LEMUR-2-HCS-BAZUS
1 67388U 26004AB  26169.90000002  .00003785  00000+0  39733-3 0  9999
2 67388  97.8024 168.8725 0004395  87.1175 273.0546 14.90084657 23568

LEMUR-2-HOTSPUR-TOM
1 66786U 25276EB  26170.23045014  .00004743  00000+0  39535-3 0  9995
2 66786  97.5257 240.7876 0015392 121.6599 238.6128 14.98980463 30439

LEMUR-2-KATIE
1 67387U 26004AA  26169.90096828  .00002376  00000+0  25173-3 0  9997
2 67387  97.8035 168.8928 0004846  89.5222 270.6551 14.90057114 23561

LEMUR-2-MARIO-SOUSA
1 67365U 26004C   26170.26905613  .00003875  00000+0  42223-3 0  9995
2 67365  97.7989 168.7911 0009851 127.7711 232.4400 14.88527155 23602

LEMUR-2-MYRA
1 66787U 25276EC  26170.19456373  .00006717  00000+0  53916-3 0  9997
2 66787  97.5214 241.0097 0016812 134.9733 225.2857 15.00271321 30517

LEMUR-2-SONNENBLUME
1 67367U 26004E   26170.26772795  .00002425  00000+0  26787-3 0  9997
2 67367  97.7984 168.7736 0009321 129.3061 230.8983 14.88324307 23604

LEMUR-2-STARLIGHT
1 66783U 25276DY  26170.10579439  .00004197  00000+0  34972-3 0  9994
2 66783  97.5254 240.6796 0015091 122.7448 237.5232 14.99056846 30483

LEMUR-2-TARTIFLETTE
1 66784U 25276DZ  26170.17098525  .00003883  00000+0  32379-3 0  9994
2 66784  97.5257 240.7490 0014025 129.0688 231.1786 14.99084641 30490

LEMUR-2-VUKASIN
1 66785U 25276EA  26170.09623490  .00004428  00000+0  35696-3 0  9992
2 66785  97.5299 240.9780 0006011 120.1121 240.0699 15.00384205 30439

LEMUR-2-WOBLER
1 67368U 26004F   26169.99204473  .00002822  00000+0  30916-3 0  9999
2 67368  97.8038 168.6263 0009725 120.7773 239.4402 14.88525973 23561

TWILIGHT-1 OBJECT B
1 67364U 26004B   26170.24378195  .00001426  00000+0  16234-3 0  9994
2 67364  97.8061 168.7844 0010072 118.5197 241.7034 14.87708459 23592
